{
    "type": "FeatureCollection",
    "features": [
        {
            "type": "Feature",
            "geometry": {
                "type": "Point",
                "coordinates": [
                    121.015021,
                    14.570669
                ]
            },
            "properties": {}
        },
        {
            "type": "Feature",
            "geometry": {
                "type": "LineString",
                "coordinates": [
                    [
                        121.015016,
                        14.570669
                    ],
                    [
                        121.01309,
                        14.56703
                    ],
                    [
                        121.011622,
                        14.564164
                    ],
                    [
                        121.011254,
                        14.563513
                    ],
                    [
                        121.011101,
                        14.563229
                    ],
                    [
                        121.010973,
                        14.562859
                    ],
                    [
                        121.01092,
                        14.562206
                    ],
                    [
                        121.010987,
                        14.561681
                    ],
                    [
                        121.011144,
                        14.561149
                    ],
                    [
                        121.011304,
                        14.560855
                    ],
                    [
                        121.011391,
                        14.560695
                    ],
                    [
                        121.011464,
                        14.560521
                    ],
                    [
                        121.011772,
                        14.559932
                    ],
                    [
                        121.01279,
                        14.558116
                    ],
                    [
                        121.013063,
                        14.557594
                    ],
                    [
                        121.013148,
                        14.557314
                    ],
                    [
                        121.013207,
                        14.557039
                    ],
                    [
                        121.013671,
                        14.554703
                    ],
                    [
                        121.013787,
                        14.554106
                    ],
                    [
                        121.01379,
                        14.553546
                    ],
                    [
                        121.013695,
                        14.552463
                    ],
                    [
                        121.013653,
                        14.551914
                    ],
                    [
                        121.01363,
                        14.551614
                    ],
                    [
                        121.013609,
                        14.551476
                    ],
                    [
                        121.013596,
                        14.551407
                    ],
                    [
                        121.013591,
                        14.551295
                    ],
                    [
                        121.013567,
                        14.551045
                    ],
                    [
                        121.013519,
                        14.550599
                    ],
                    [
                        121.013518,
                        14.550289
                    ],
                    [
                        121.013573,
                        14.549977
                    ],
                    [
                        121.013755,
                        14.549589
                    ],
                    [
                        121.013979,
                        14.549196
                    ],
                    [
                        121.01421,
                        14.548787
                    ],
                    [
                        121.01438,
                        14.548459
                    ],
                    [
                        121.014504,
                        14.548211
                    ],
                    [
                        121.016351,
                        14.544784
                    ],
                    [
                        121.017288,
                        14.543092
                    ],
                    [
                        121.017786,
                        14.542162
                    ],
                    [
                        121.01804,
                        14.541701
                    ],
                    [
                        121.018083,
                        14.541619
                    ],
                    [
                        121.018109,
                        14.541576
                    ],
                    [
                        121.018139,
                        14.541542
                    ],
                    [
                        121.018183,
                        14.541513
                    ],
                    [
                        121.018215,
                        14.541475
                    ],
                    [
                        121.018283,
                        14.541355
                    ],
                    [
                        121.018441,
                        14.541074
                    ],
                    [
                        121.01857,
                        14.540808
                    ],
                    [
                        121.018744,
                        14.540493
                    ],
                    [
                        121.018782,
                        14.540417
                    ],
                    [
                        121.018784,
                        14.54034
                    ],
                    [
                        121.022009,
                        14.534315
                    ]
                ]
            },
            "properties": {}
        },
        {
            "type": "Feature",
            "geometry": {
                "type": "Point",
                "coordinates": [
                    121.013087,
                    14.567037
                ]
            },
            "properties": {}
        },
        {
            "type": "Feature",
            "geometry": {
                "type": "Point",
                "coordinates": [
                    121.011435,
                    14.560595
                ]
            },
            "properties": {}
        },
        {
            "type": "Feature",
            "geometry": {
                "type": "Point",
                "coordinates": [
                    121.010957,
                    14.562603
                ]
            },
            "properties": {}
        },
        {
            "type": "Feature",
            "geometry": {
                "type": "Point",
                "coordinates": [
                    121.013114,
                    14.557435
                ]
            },
            "properties": {}
        },
        {
            "type": "Feature",
            "geometry": {
                "type": "Point",
                "coordinates": [
                    121.012639,
                    14.558382
                ]
            },
            "properties": {}
        },
        {
            "type": "Feature",
            "geometry": {
                "type": "Point",
                "coordinates": [
                    121.012082,
                    14.559384
                ]
            },
            "properties": {}
        },
        {
            "type": "Feature",
            "geometry": {
                "type": "Point",
                "coordinates": [
                    121.013769,
                    14.553326
                ]
            },
            "properties": {}
        },
        {
            "type": "Feature",
            "geometry": {
                "type": "Point",
                "coordinates": [
                    121.013547,
                    14.550845
                ]
            },
            "properties": {}
        },
        {
            "type": "Feature",
            "properties": {},
            "geometry": {
                "type": "Point",
                "coordinates": [
                    121.013643,
                    14.551806
                ]
            }
        }
    ]
}