{
    "type": "FeatureCollection",
    "features": [
        {
            "type": "Feature",
            "geometry": {
                "type": "Point",
                "coordinates": [
                    121.015021,
                    14.570669
                ]
            },
            "properties": {}
        },
        {
            "type": "Feature",
            "geometry": {
                "type": "LineString",
                "coordinates": [
                    [
                        121.015016,
                        14.570669
                    ],
                    [
                        121.01309,
                        14.56703
                    ],
                    [
                        121.011622,
                        14.564164
                    ],
                    [
                        121.011254,
                        14.563513
                    ],
                    [
                        121.011101,
                        14.563229
                    ],
                    [
                        121.010973,
                        14.562859
                    ],
                    [
                        121.01092,
                        14.562206
                    ],
                    [
                        121.010987,
                        14.561681
                    ],
                    [
                        121.011144,
                        14.561149
                    ],
                    [
                        121.011304,
                        14.560855
                    ],
                    [
                        121.011391,
                        14.560695
                    ],
                    [
                        121.011464,
                        14.560521
                    ],
                    [
                        121.011772,
                        14.559932
                    ],
                    [
                        121.01279,
                        14.558116
                    ],
                    [
                        121.013063,
                        14.557594
                    ],
                    [
                        121.013148,
                        14.557314
                    ],
                    [
                        121.013207,
                        14.557039
                    ],
                    [
                        121.013671,
                        14.554703
                    ],
                    [
                        121.013787,
                        14.554106
                    ],
                    [
                        121.01379,
                        14.553546
                    ],
                    [
                        121.013695,
                        14.552463
                    ],
                    [
                        121.013653,
                        14.551914
                    ],
                    [
                        121.01363,
                        14.551614
                    ],
                    [
                        121.013609,
                        14.551476
                    ],
                    [
                        121.013342,
                        14.551473
                    ],
                    [
                        121.013075,
                        14.551467
                    ],
                    [
                        121.012802,
                        14.551465
                    ],
                    [
                        121.01264,
                        14.551468
                    ],
                    [
                        121.012427,
                        14.551465
                    ],
                    [
                        121.01198,
                        14.551393
                    ],
                    [
                        121.011738,
                        14.551345
                    ],
                    [
                        121.011654,
                        14.551329
                    ],
                    [
                        121.011534,
                        14.551315
                    ],
                    [
                        121.012593,
                        14.549398
                    ],
                    [
                        121.013101,
                        14.548448
                    ],
                    [
                        121.013502,
                        14.547707
                    ],
                    [
                        121.014088,
                        14.548006
                    ],
                    [
                        121.014504,
                        14.548211
                    ],
                    [
                        121.016351,
                        14.544784
                    ],
                    [
                        121.017288,
                        14.543092
                    ],
                    [
                        121.017786,
                        14.542162
                    ],
                    [
                        121.01804,
                        14.541701
                    ],
                    [
                        121.018128,
                        14.541529
                    ],
                    [
                        121.01816,
                        14.541435
                    ],
                    [
                        121.017796,
                        14.541206
                    ],
                    [
                        121.017765,
                        14.541149
                    ],
                    [
                        121.017761,
                        14.541103
                    ],
                    [
                        121.017846,
                        14.540956
                    ],
                    [
                        121.017941,
                        14.540832
                    ],
                    [
                        121.017982,
                        14.540804
                    ],
                    [
                        121.018014,
                        14.540797
                    ],
                    [
                        121.018103,
                        14.540824
                    ],
                    [
                        121.018374,
                        14.541
                    ],
                    [
                        121.01852,
                        14.540721
                    ],
                    [
                        121.018669,
                        14.540452
                    ],
                    [
                        121.018784,
                        14.54034
                    ],
                    [
                        121.022009,
                        14.534315
                    ]
                ]
            },
            "properties": {}
        },
        {
            "type": "Feature",
            "geometry": {
                "type": "Point",
                "coordinates": [
                    121.013087,
                    14.567037
                ]
            },
            "properties": {}
        },
        {
            "type": "Feature",
            "geometry": {
                "type": "Point",
                "coordinates": [
                    121.011435,
                    14.560595
                ]
            },
            "properties": {}
        },
        {
            "type": "Feature",
            "geometry": {
                "type": "Point",
                "coordinates": [
                    121.010957,
                    14.562603
                ]
            },
            "properties": {}
        },
        {
            "type": "Feature",
            "geometry": {
                "type": "Point",
                "coordinates": [
                    121.013114,
                    14.557435
                ]
            },
            "properties": {}
        },
        {
            "type": "Feature",
            "geometry": {
                "type": "Point",
                "coordinates": [
                    121.012639,
                    14.558382
                ]
            },
            "properties": {}
        },
        {
            "type": "Feature",
            "geometry": {
                "type": "Point",
                "coordinates": [
                    121.012082,
                    14.559384
                ]
            },
            "properties": {}
        },
        {
            "type": "Feature",
            "geometry": {
                "type": "Point",
                "coordinates": [
                    121.013769,
                    14.553326
                ]
            },
            "properties": {}
        },
        {
            "type": "Feature",
            "geometry": {
                "type": "Point",
                "coordinates": [
                    121.013427,
                    14.551475
                ]
            },
            "properties": {}
        },
        {
            "type": "Feature",
            "properties": {},
            "geometry": {
                "type": "Point",
                "coordinates": [
                    121.013643,
                    14.551781
                ]
            }
        }
    ]
}